start=new Date('2022-01-15T00:00:00.000Z').valueOf();
sats=[{"TIME_SYSTEM":"UTC","GP_ID":"193879631","TLE_LINE1":"1 47607U 21009BM  22014.61019986  .00001637  00000-0  12879-3 0  9992","PERIOD":"95.592","OBJECT_NAME":"STARLINK-2025","APOAPSIS":"548.447","OBJECT_TYPE":"PAYLOAD","FILE":"3273247","REV_AT_EPOCH":"5257","MEAN_ANOMALY":"292.1079","RA_OF_ASC_NODE":"333.0713","NORAD_CAT_ID":"47607","EPHEMERIS_TYPE":"0","ELEMENT_SET_NO":"999","ECCENTRICITY":"0.00017750","EPOCH":"2022-01-14T14:38:41.267904","CLASSIFICATION_TYPE":"U","SEMIMAJOR_AXIS":"6925.352","MEAN_MOTION_DDOT":"0.0000000000000","OBJECT_ID":"2021-009BM","ARG_OF_PERICENTER":"68.0099","MEAN_MOTION_DOT":"0.00001637","CENTER_NAME":"EARTH","MEAN_ELEMENT_THEORY":"SGP4","DECAY_DATE":null,"LAUNCH_DATE":"2021-02-04","TLE_LINE2":"2 47607  53.0546 333.0713 0001775  68.0099 292.1079 15.06398772 52578","PERIAPSIS":"545.988","SITE":"AFETR","RCS_SIZE":"LARGE","INCLINATION":"53.0546","MEAN_MOTION":"15.06398772","REF_FRAME":"TEME","COUNTRY_CODE":"US","BSTAR":"0.00012879000000"},{"COUNTRY_CODE":"US","BSTAR":"0.00003441200000","MEAN_MOTION":"15.06396125","REF_FRAME":"TEME","SITE":"AFETR","INCLINATION":"53.0552","RCS_SIZE":"LARGE","TLE_LINE2":"2 47620  53.0552  32.4065 0001627  74.8473 285.2696 15.06396125 51642","PERIAPSIS":"546.099","MEAN_ELEMENT_THEORY":"SGP4","DECAY_DATE":null,"LAUNCH_DATE":"2021-02-16","OBJECT_ID":"2021-012A","MEAN_MOTION_DOT":"0.00000231","ARG_OF_PERICENTER":"74.8473","CENTER_NAME":"EARTH","EPOCH":"2022-01-14T18:13:39.065952","CLASSIFICATION_TYPE":"U","SEMIMAJOR_AXIS":"6925.360","MEAN_MOTION_DDOT":"0.0000000000000","ECCENTRICITY":"0.00016270","ELEMENT_SET_NO":"999","EPHEMERIS_TYPE":"0","MEAN_ANOMALY":"285.2696","FILE":"3273247","REV_AT_EPOCH":"5164","NORAD_CAT_ID":"47620","RA_OF_ASC_NODE":"32.4065","OBJECT_TYPE":"PAYLOAD","APOAPSIS":"548.352","OBJECT_NAME":"STARLINK-1528","PERIOD":"95.592","TIME_SYSTEM":"UTC","GP_ID":"193878381","TLE_LINE1":"1 47620U 21012A   22014.75947993  .00000231  00000-0  34412-4 0  9991"},{"SEMIMAJOR_AXIS":"6925.360","MEAN_MOTION_DDOT":"0.0000000000000","CLASSIFICATION_TYPE":"U","EPOCH":"2022-01-14T18:03:02.217600","LAUNCH_DATE":"2021-02-16","DECAY_DATE":null,"MEAN_ELEMENT_THEORY":"SGP4","CENTER_NAME":"EARTH","ARG_OF_PERICENTER":"62.2755","MEAN_MOTION_DOT":"0.00000660","OBJECT_ID":"2021-012B","RCS_SIZE":"LARGE","INCLINATION":"53.0566","SITE":"AFETR","PERIAPSIS":"546.155","TLE_LINE2":"2 47621  53.0566  32.4406 0001546  62.2755 297.8391 15.06396188 51652","COUNTRY_CODE":"US","BSTAR":"0.00006321100000","REF_FRAME":"TEME","MEAN_MOTION":"15.06396188","PERIOD":"95.592","TLE_LINE1":"1 47621U 21012B   22014.75210900  .00000660  00000-0  63211-4 0  9998","GP_ID":"193879632","TIME_SYSTEM":"UTC","OBJECT_TYPE":"PAYLOAD","APOAPSIS":"548.296","OBJECT_NAME":"STARLINK-1609","EPHEMERIS_TYPE":"0","NORAD_CAT_ID":"47621","RA_OF_ASC_NODE":"32.4406","FILE":"3273247","MEAN_ANOMALY":"297.8391","REV_AT_EPOCH":"5165","ECCENTRICITY":"0.00015460","ELEMENT_SET_NO":"999"},{"TIME_SYSTEM":"UTC","GP_ID":"193879883","TLE_LINE1":"1 47622U 21012C   22014.74842227  .00000389  00000-0  45042-4 0  9991","PERIOD":"95.592","OBJECT_NAME":"STARLINK-1645","APOAPSIS":"548.363","OBJECT_TYPE":"PAYLOAD","REV_AT_EPOCH":"5164","FILE":"3273247","MEAN_ANOMALY":"294.8480","NORAD_CAT_ID":"47622","RA_OF_ASC_NODE":"32.4461","EPHEMERIS_TYPE":"0","ELEMENT_SET_NO":"999","ECCENTRICITY":"0.00016440","CLASSIFICATION_TYPE":"U","EPOCH":"2022-01-14T17:57:43.684128","MEAN_MOTION_DDOT":"0.0000000000000","SEMIMAJOR_AXIS":"6925.360","OBJECT_ID":"2021-012C","CENTER_NAME":"EARTH","MEAN_MOTION_DOT":"0.00000389","ARG_OF_PERICENTER":"65.2680","DECAY_DATE":null,"MEAN_ELEMENT_THEORY":"SGP4","LAUNCH_DATE":"2021-02-16","TLE_LINE2":"2 47622  53.0563  32.4461 0001644  65.2680 294.8480 15.06396422 51646","PERIAPSIS":"546.086","SITE":"AFETR","INCLINATION":"53.0563","RCS_SIZE":"LARGE","MEAN_MOTION":"15.06396422","REF_FRAME":"TEME","BSTAR":"0.00004504200000","COUNTRY_CODE":"US"},{"SITE":"AFETR","RCS_SIZE":"LARGE","INCLINATION":"53.0570","TLE_LINE2":"2 47623  53.0570 328.2921 0001720  60.2433 299.8726 15.06404035 52535","PERIAPSIS":"546.010","BSTAR":"0.00007475000000","COUNTRY_CODE":"US","MEAN_MOTION":"15.06404035","REF_FRAME":"TEME","CLASSIFICATION_TYPE":"U","EPOCH":"2022-01-14T13:27:40.749984","SEMIMAJOR_AXIS":"6925.336","MEAN_MOTION_DDOT":"0.0000000000000","DECAY_DATE":null,"MEAN_ELEMENT_THEORY":"SGP4","LAUNCH_DATE":"2021-02-16","OBJECT_ID":"2021-012D","CENTER_NAME":"EARTH","MEAN_MOTION_DOT":"0.00000832","ARG_OF_PERICENTER":"60.2433","EPHEMERIS_TYPE":"0","MEAN_ANOMALY":"299.8726","FILE":"3272874","REV_AT_EPOCH":"5253","RA_OF_ASC_NODE":"328.2921","NORAD_CAT_ID":"47623","ECCENTRICITY":"0.00017200","ELEMENT_SET_NO":"999","PERIOD":"95.592","TIME_SYSTEM":"UTC","GP_ID":"193847013","TLE_LINE1":"1 47623U 21012D   22014.56088831  .00000832  00000-0  74750-4 0  9996","APOAPSIS":"548.392","OBJECT_TYPE":"PAYLOAD","OBJECT_NAME":"STARLINK-1655"},{"CLASSIFICATION_TYPE":"U","EPOCH":"2022-01-14T16:30:08.678880","MEAN_MOTION_DDOT":"0.0000000000000","SEMIMAJOR_AXIS":"6925.345","OBJECT_ID":"2021-012E","CENTER_NAME":"EARTH","MEAN_MOTION_DOT":"0.00001111","ARG_OF_PERICENTER":"69.4075","DECAY_DATE":null,"MEAN_ELEMENT_THEORY":"SGP4","LAUNCH_DATE":"2021-02-16","TLE_LINE2":"2 47624  53.0567  12.7262 0001594  69.4075 290.7085 15.06401054 51936","PERIAPSIS":"546.106","SITE":"AFETR","RCS_SIZE":"LARGE","INCLINATION":"53.0567","MEAN_MOTION":"15.06401054","REF_FRAME":"TEME","BSTAR":"0.00009346900000","COUNTRY_CODE":"US","TIME_SYSTEM":"UTC","GP_ID":"193878881","TLE_LINE1":"1 47624U 21012E   22014.68760045  .00001111  00000-0  93469-4 0  9993","PERIOD":"95.592","OBJECT_NAME":"STARLINK-1669","APOAPSIS":"548.314","OBJECT_TYPE":"PAYLOAD","FILE":"3273247","MEAN_ANOMALY":"290.7085","REV_AT_EPOCH":"5193","RA_OF_ASC_NODE":"12.7262","NORAD_CAT_ID":"47624","EPHEMERIS_TYPE":"0","ELEMENT_SET_NO":"999","ECCENTRICITY":"0.00015940"},{"OBJECT_NAME":"STARLINK-1704","OBJECT_TYPE":"PAYLOAD","APOAPSIS":"548.186","TIME_SYSTEM":"UTC","TLE_LINE1":"1 47625U 21012F   22014.75578782  .00002829  00000-0  20872-3 0  9991","GP_ID":"193879133","PERIOD":"95.592","ELEMENT_SET_NO":"999","ECCENTRICITY":"0.00014070","MEAN_ANOMALY":"288.3080","FILE":"3273247","REV_AT_EPOCH":"5164","RA_OF_ASC_NODE":"32.4213","NORAD_CAT_ID":"47625","EPHEMERIS_TYPE":"0","OBJECT_ID":"2021-012F","CENTER_NAME":"EARTH","ARG_OF_PERICENTER":"71.8062","MEAN_MOTION_DOT":"0.00002829","DECAY_DATE":null,"MEAN_ELEMENT_THEORY":"SGP4","LAUNCH_DATE":"2021-02-16","CLASSIFICATION_TYPE":"U","EPOCH":"2022-01-14T18:08:20.067648","SEMIMAJOR_AXIS":"6925.347","MEAN_MOTION_DDOT":"0.0000000000000","MEAN_MOTION":"15.06400595","REF_FRAME":"TEME","COUNTRY_CODE":"US","BSTAR":"0.00020872000000","TLE_LINE2":"2 47625  53.0565  32.4213 0001407  71.8062 288.3080 15.06400595 51641","PERIAPSIS":"546.237","SITE":"AFETR","INCLINATION":"53.0565","RCS_SIZE":"LARGE"},{"SEMIMAJOR_AXIS":"6925.361","MEAN_MOTION_DDOT":"0.0000000000000","CLASSIFICATION_TYPE":"U","EPOCH":"2022-01-14T17:47:06.688032","CENTER_NAME":"EARTH","MEAN_MOTION_DOT":"0.00000037","ARG_OF_PERICENTER":"64.2041","OBJECT_ID":"2021-012G","LAUNCH_DATE":"2021-02-16","DECAY_DATE":null,"MEAN_ELEMENT_THEORY":"SGP4","PERIAPSIS":"546.162","TLE_LINE2":"2 47626  53.0579  32.4790 0001537  64.2041 295.9106 15.06395812 51642","RCS_SIZE":"LARGE","INCLINATION":"53.0579","SITE":"AFETR","REF_FRAME":"TEME","MEAN_MOTION":"15.06395812","BSTAR":"0.00002136400000","COUNTRY_CODE":"US","TLE_LINE1":"1 47626U 21012G   22014.74104963  .00000037  00000-0  21364-4 0  9994","GP_ID":"193879384","TIME_SYSTEM":"UTC","PERIOD":"95.592","OBJECT_NAME":"STARLINK-1761","APOAPSIS":"548.291","OBJECT_TYPE":"PAYLOAD","RA_OF_ASC_NODE":"32.4790","NORAD_CAT_ID":"47626","REV_AT_EPOCH":"5164","FILE":"3273247","MEAN_ANOMALY":"295.9106","EPHEMERIS_TYPE":"0","ELEMENT_SET_NO":"999","ECCENTRICITY":"0.00015370"},{"MEAN_MOTION":"15.06419194","REF_FRAME":"TEME","COUNTRY_CODE":"US","BSTAR":"-0.00173060000000","TLE_LINE2":"2 47627  53.0537 296.6934 0001916  68.3643 107.2339 15.06419194  3599","PERIAPSIS":"545.828","SITE":"AFETR","RCS_SIZE":"MEDIUM","INCLINATION":"53.0537","OBJECT_ID":"2021-012H","ARG_OF_PERICENTER":"68.3643","MEAN_MOTION_DOT":"-0.00025979","CENTER_NAME":"EARTH","MEAN_ELEMENT_THEORY":"SGP4","DECAY_DATE":null,"LAUNCH_DATE":"2021-02-16","EPOCH":"2022-01-14T22:00:00.999936","CLASSIFICATION_TYPE":"U","MEAN_MOTION_DDOT":"0.0000000000000","SEMIMAJOR_AXIS":"6925.290","ELEMENT_SET_NO":"999","ECCENTRICITY":"0.00019160","MEAN_ANOMALY":"107.2339","FILE":"3273247","REV_AT_EPOCH":"359","RA_OF_ASC_NODE":"296.6934","NORAD_CAT_ID":"47627","EPHEMERIS_TYPE":"0","OBJECT_NAME":"STARLINK-1972","APOAPSIS":"548.482","OBJECT_TYPE":"PAYLOAD","TIME_SYSTEM":"UTC","TLE_LINE1":"1 47627U 21012H   22014.91667824 -.00025979  00000-0 -17306-2 0  9997","GP_ID":"193878132","PERIOD":"95.591"},{"OBJECT_ID":"2021-012J","MEAN_MOTION_DOT":"0.00000780","ARG_OF_PERICENTER":"69.8929","CENTER_NAME":"EARTH","MEAN_ELEMENT_THEORY":"SGP4","DECAY_DATE":null,"LAUNCH_DATE":"2021-02-16","EPOCH":"2022-01-14T18:40:10.773408","CLASSIFICATION_TYPE":"U","SEMIMAJOR_AXIS":"6925.347","MEAN_MOTION_DDOT":"0.0000000000000","MEAN_MOTION":"15.06400553","REF_FRAME":"TEME","COUNTRY_CODE":"US","BSTAR":"0.00007123500000","TLE_LINE2":"2 47628  53.0551  32.3336 0001406  69.8929 290.2211 15.06400553 51655","PERIAPSIS":"546.238","SITE":"AFETR","INCLINATION":"53.0551","RCS_SIZE":"LARGE","OBJECT_NAME":"STARLINK-1973","APOAPSIS":"548.186","OBJECT_TYPE":"PAYLOAD","TIME_SYSTEM":"UTC","TLE_LINE1":"1 47628U 21012J   22014.77790247  .00000780  00000-0  71235-4 0  9992","GP_ID":"193878382","PERIOD":"95.592","ELEMENT_SET_NO":"999","ECCENTRICITY":"0.00014060","FILE":"3273247","REV_AT_EPOCH":"5165","MEAN_ANOMALY":"290.2211","NORAD_CAT_ID":"47628","RA_OF_ASC_NODE":"32.3336","EPHEMERIS_TYPE":"0"}];
